ONEWEB-0395             
1 50475U 21132G   24290.54769814 -.00000425  00000+0 -12336-2 0  9990
2 50475  87.8919 142.3368 0001385  70.7183 289.4095 13.11418925135949
ONEWEB-0396             
1 50476U 21132H   24290.48612564  .00000199  00000+0  47095-3 0  9990
2 50476  87.9058  96.5968 0001468  94.5210 265.6090 13.18687321141413
ONEWEB-0397             
1 50477U 21132J   24290.50035290  .00000122  00000+0  27668-3 0  9999
2 50477  87.9057  96.5950 0001577  99.3385 260.7926 13.18680859141391
ONEWEB-0398             
1 50478U 21132K   24290.89698037  .00000546  00000+0  15051-2 0  9998
2 50478  87.8906 142.2426 0001738  66.2193 293.9117 13.11415027137166
ONEWEB-0399             
1 50479U 21132L   24290.50193043  .00000595  00000+0  16423-2 0  9992
2 50479  87.8910 142.3400 0001458  90.6898 269.4397 13.11417438135824
ONEWEB-0400             
1 50480U 21132M   24290.47979888  .00000171  00000+0  39978-3 0  9990
2 50480  87.9048  96.5972 0001707  82.4313 277.7013 13.18687595141386
ONEWEB-0401             
1 50481U 21132N   24290.52248021  .00000033  00000+0  49679-4 0  9992
2 50481  87.9053  96.5853 0001685  99.2979 260.8343 13.18685168141394
ONEWEB-0402             
1 50482U 21132P   24290.48770298  .00000089  00000+0  19190-3 0  9999
2 50482  87.9051  96.5894 0002047 111.4540 248.6810 13.18689549141415
