<?xml version="1.0" encoding="UTF-8"?>
<ndm xmlns:xsi="http://www.w3.org/2001/XMLSchema-instance" xsi:noNamespaceSchemaLocation="https://sanaregistry.org/r/ndmxml_unqualified/ndmxml-2.0.0-master-2.0.xsd">
<omm id="CCSDS_OMM_VERS" version="2.0">
<header><CREATION_DATE/><ORIGINATOR/></header><body><segment><metadata><OBJECT_NAME>ONEWEB-0395</OBJECT_NAME><OBJECT_ID>2021-132G</OBJECT_ID><CENTER_NAME>EARTH</CENTER_NAME><REF_FRAME>TEME</REF_FRAME><TIME_SYSTEM>UTC</TIME_SYSTEM><MEAN_ELEMENT_THEORY>SGP4</MEAN_ELEMENT_THEORY></metadata><data><meanElements><EPOCH>2024-10-16T13:08:41.119296</EPOCH><MEAN_MOTION>13.11418925</MEAN_MOTION><ECCENTRICITY>.0001385</ECCENTRICITY><INCLINATION>87.8919</INCLINATION><RA_OF_ASC_NODE>142.3368</RA_OF_ASC_NODE><ARG_OF_PERICENTER>70.7183</ARG_OF_PERICENTER><MEAN_ANOMALY>289.4095</MEAN_ANOMALY></meanElements><tleParameters><EPHEMERIS_TYPE>0</EPHEMERIS_TYPE><CLASSIFICATION_TYPE>U</CLASSIFICATION_TYPE><NORAD_CAT_ID>50475</NORAD_CAT_ID><ELEMENT_SET_NO>999</ELEMENT_SET_NO><REV_AT_EPOCH>13594</REV_AT_EPOCH><BSTAR>-.12336E-2</BSTAR><MEAN_MOTION_DOT>-.425E-5</MEAN_MOTION_DOT><MEAN_MOTION_DDOT>0</MEAN_MOTION_DDOT></tleParameters></data></segment></body></omm>
<omm id="CCSDS_OMM_VERS" version="2.0">
<header><CREATION_DATE/><ORIGINATOR/></header><body><segment><metadata><OBJECT_NAME>ONEWEB-0396</OBJECT_NAME><OBJECT_ID>2021-132H</OBJECT_ID><CENTER_NAME>EARTH</CENTER_NAME><REF_FRAME>TEME</REF_FRAME><TIME_SYSTEM>UTC</TIME_SYSTEM><MEAN_ELEMENT_THEORY>SGP4</MEAN_ELEMENT_THEORY></metadata><data><meanElements><EPOCH>2024-10-16T11:40:01.255296</EPOCH><MEAN_MOTION>13.18687321</MEAN_MOTION><ECCENTRICITY>.0001468</ECCENTRICITY><INCLINATION>87.9058</INCLINATION><RA_OF_ASC_NODE>96.5968</RA_OF_ASC_NODE><ARG_OF_PERICENTER>94.5210</ARG_OF_PERICENTER><MEAN_ANOMALY>265.6090</MEAN_ANOMALY></meanElements><tleParameters><EPHEMERIS_TYPE>0</EPHEMERIS_TYPE><CLASSIFICATION_TYPE>U</CLASSIFICATION_TYPE><NORAD_CAT_ID>50476</NORAD_CAT_ID><ELEMENT_SET_NO>999</ELEMENT_SET_NO><REV_AT_EPOCH>14141</REV_AT_EPOCH><BSTAR>.47095E-3</BSTAR><MEAN_MOTION_DOT>.199E-5</MEAN_MOTION_DOT><MEAN_MOTION_DDOT>0</MEAN_MOTION_DDOT></tleParameters></data></segment></body></omm>
<omm id="CCSDS_OMM_VERS" version="2.0">
<header><CREATION_DATE/><ORIGINATOR/></header><body><segment><metadata><OBJECT_NAME>ONEWEB-0397</OBJECT_NAME><OBJECT_ID>2021-132J</OBJECT_ID><CENTER_NAME>EARTH</CENTER_NAME><REF_FRAME>TEME</REF_FRAME><TIME_SYSTEM>UTC</TIME_SYSTEM><MEAN_ELEMENT_THEORY>SGP4</MEAN_ELEMENT_THEORY></metadata><data><meanElements><EPOCH>2024-10-16T12:00:30.490560</EPOCH><MEAN_MOTION>13.18680859</MEAN_MOTION><ECCENTRICITY>.0001577</ECCENTRICITY><INCLINATION>87.9057</INCLINATION><RA_OF_ASC_NODE>96.5950</RA_OF_ASC_NODE><ARG_OF_PERICENTER>99.3385</ARG_OF_PERICENTER><MEAN_ANOMALY>260.7926</MEAN_ANOMALY></meanElements><tleParameters><EPHEMERIS_TYPE>0</EPHEMERIS_TYPE><CLASSIFICATION_TYPE>U</CLASSIFICATION_TYPE><NORAD_CAT_ID>50477</NORAD_CAT_ID><ELEMENT_SET_NO>999</ELEMENT_SET_NO><REV_AT_EPOCH>14139</REV_AT_EPOCH><BSTAR>.27668E-3</BSTAR><MEAN_MOTION_DOT>.122E-5</MEAN_MOTION_DOT><MEAN_MOTION_DDOT>0</MEAN_MOTION_DDOT></tleParameters></data></segment></body></omm>
<omm id="CCSDS_OMM_VERS" version="2.0">
<header><CREATION_DATE/><ORIGINATOR/></header><body><segment><metadata><OBJECT_NAME>ONEWEB-0398</OBJECT_NAME><OBJECT_ID>2021-132K</OBJECT_ID><CENTER_NAME>EARTH</CENTER_NAME><REF_FRAME>TEME</REF_FRAME><TIME_SYSTEM>UTC</TIME_SYSTEM><MEAN_ELEMENT_THEORY>SGP4</MEAN_ELEMENT_THEORY></metadata><data><meanElements><EPOCH>2024-10-16T21:31:39.103968</EPOCH><MEAN_MOTION>13.11415027</MEAN_MOTION><ECCENTRICITY>.0001738</ECCENTRICITY><INCLINATION>87.8906</INCLINATION><RA_OF_ASC_NODE>142.2426</RA_OF_ASC_NODE><ARG_OF_PERICENTER>66.2193</ARG_OF_PERICENTER><MEAN_ANOMALY>293.9117</MEAN_ANOMALY></meanElements><tleParameters><EPHEMERIS_TYPE>0</EPHEMERIS_TYPE><CLASSIFICATION_TYPE>U</CLASSIFICATION_TYPE><NORAD_CAT_ID>50478</NORAD_CAT_ID><ELEMENT_SET_NO>999</ELEMENT_SET_NO><REV_AT_EPOCH>13716</REV_AT_EPOCH><BSTAR>.15051E-2</BSTAR><MEAN_MOTION_DOT>.546E-5</MEAN_MOTION_DOT><MEAN_MOTION_DDOT>0</MEAN_MOTION_DDOT></tleParameters></data></segment></body></omm>
<omm id="CCSDS_OMM_VERS" version="2.0">
<header><CREATION_DATE/><ORIGINATOR/></header><body><segment><metadata><OBJECT_NAME>ONEWEB-0399</OBJECT_NAME><OBJECT_ID>2021-132L</OBJECT_ID><CENTER_NAME>EARTH</CENTER_NAME><REF_FRAME>TEME</REF_FRAME><TIME_SYSTEM>UTC</TIME_SYSTEM><MEAN_ELEMENT_THEORY>SGP4</MEAN_ELEMENT_THEORY></metadata><data><meanElements><EPOCH>2024-10-16T12:02:46.789152</EPOCH><MEAN_MOTION>13.11417438</MEAN_MOTION><ECCENTRICITY>.0001458</ECCENTRICITY><INCLINATION>87.8910</INCLINATION><RA_OF_ASC_NODE>142.3400</RA_OF_ASC_NODE><ARG_OF_PERICENTER>90.6898</ARG_OF_PERICENTER><MEAN_ANOMALY>269.4397</MEAN_ANOMALY></meanElements><tleParameters><EPHEMERIS_TYPE>0</EPHEMERIS_TYPE><CLASSIFICATION_TYPE>U</CLASSIFICATION_TYPE><NORAD_CAT_ID>50479</NORAD_CAT_ID><ELEMENT_SET_NO>999</ELEMENT_SET_NO><REV_AT_EPOCH>13582</REV_AT_EPOCH><BSTAR>.16423E-2</BSTAR><MEAN_MOTION_DOT>.595E-5</MEAN_MOTION_DOT><MEAN_MOTION_DDOT>0</MEAN_MOTION_DDOT></tleParameters></data></segment></body></omm>
<omm id="CCSDS_OMM_VERS" version="2.0">
<header><CREATION_DATE/><ORIGINATOR/></header><body><segment><metadata><OBJECT_NAME>ONEWEB-0400</OBJECT_NAME><OBJECT_ID>2021-132M</OBJECT_ID><CENTER_NAME>EARTH</CENTER_NAME><REF_FRAME>TEME</REF_FRAME><TIME_SYSTEM>UTC</TIME_SYSTEM><MEAN_ELEMENT_THEORY>SGP4</MEAN_ELEMENT_THEORY></metadata><data><meanElements><EPOCH>2024-10-16T11:30:54.623232</EPOCH><MEAN_MOTION>13.18687595</MEAN_MOTION><ECCENTRICITY>.0001707</ECCENTRICITY><INCLINATION>87.9048</INCLINATION><RA_OF_ASC_NODE>96.5972</RA_OF_ASC_NODE><ARG_OF_PERICENTER>82.4313</ARG_OF_PERICENTER><MEAN_ANOMALY>277.7013</MEAN_ANOMALY></meanElements><tleParameters><EPHEMERIS_TYPE>0</EPHEMERIS_TYPE><CLASSIFICATION_TYPE>U</CLASSIFICATION_TYPE><NORAD_CAT_ID>50480</NORAD_CAT_ID><ELEMENT_SET_NO>999</ELEMENT_SET_NO><REV_AT_EPOCH>14138</REV_AT_EPOCH><BSTAR>.39978E-3</BSTAR><MEAN_MOTION_DOT>.171E-5</MEAN_MOTION_DOT><MEAN_MOTION_DDOT>0</MEAN_MOTION_DDOT></tleParameters></data></segment></body></omm>
<omm id="CCSDS_OMM_VERS" version="2.0">
<header><CREATION_DATE/><ORIGINATOR/></header><body><segment><metadata><OBJECT_NAME>ONEWEB-0401</OBJECT_NAME><OBJECT_ID>2021-132N</OBJECT_ID><CENTER_NAME>EARTH</CENTER_NAME><REF_FRAME>TEME</REF_FRAME><TIME_SYSTEM>UTC</TIME_SYSTEM><MEAN_ELEMENT_THEORY>SGP4</MEAN_ELEMENT_THEORY></metadata><data><meanElements><EPOCH>2024-10-16T12:32:22.290144</EPOCH><MEAN_MOTION>13.18685168</MEAN_MOTION><ECCENTRICITY>.0001685</ECCENTRICITY><INCLINATION>87.9053</INCLINATION><RA_OF_ASC_NODE>96.5853</RA_OF_ASC_NODE><ARG_OF_PERICENTER>99.2979</ARG_OF_PERICENTER><MEAN_ANOMALY>260.8343</MEAN_ANOMALY></meanElements><tleParameters><EPHEMERIS_TYPE>0</EPHEMERIS_TYPE><CLASSIFICATION_TYPE>U</CLASSIFICATION_TYPE><NORAD_CAT_ID>50481</NORAD_CAT_ID><ELEMENT_SET_NO>999</ELEMENT_SET_NO><REV_AT_EPOCH>14139</REV_AT_EPOCH><BSTAR>.49679E-4</BSTAR><MEAN_MOTION_DOT>.33E-6</MEAN_MOTION_DOT><MEAN_MOTION_DDOT>0</MEAN_MOTION_DDOT></tleParameters></data></segment></body></omm>
<omm id="CCSDS_OMM_VERS" version="2.0">
<header><CREATION_DATE/><ORIGINATOR/></header><body><segment><metadata><OBJECT_NAME>ONEWEB-0402</OBJECT_NAME><OBJECT_ID>2021-132P</OBJECT_ID><CENTER_NAME>EARTH</CENTER_NAME><REF_FRAME>TEME</REF_FRAME><TIME_SYSTEM>UTC</TIME_SYSTEM><MEAN_ELEMENT_THEORY>SGP4</MEAN_ELEMENT_THEORY></metadata><data><meanElements><EPOCH>2024-10-16T11:42:17.537472</EPOCH><MEAN_MOTION>13.18689549</MEAN_MOTION><ECCENTRICITY>.0002047</ECCENTRICITY><INCLINATION>87.9051</INCLINATION><RA_OF_ASC_NODE>96.5894</RA_OF_ASC_NODE><ARG_OF_PERICENTER>111.4540</ARG_OF_PERICENTER><MEAN_ANOMALY>248.6810</MEAN_ANOMALY></meanElements><tleParameters><EPHEMERIS_TYPE>0</EPHEMERIS_TYPE><CLASSIFICATION_TYPE>U</CLASSIFICATION_TYPE><NORAD_CAT_ID>50482</NORAD_CAT_ID><ELEMENT_SET_NO>999</ELEMENT_SET_NO><REV_AT_EPOCH>14141</REV_AT_EPOCH><BSTAR>.1919E-3</BSTAR><MEAN_MOTION_DOT>.89E-6</MEAN_MOTION_DOT><MEAN_MOTION_DDOT>0</MEAN_MOTION_DDOT></tleParameters></data></segment></body></omm>

</ndm>
